[{"OBJECT_NAME":"STARLINK-31816","OBJECT_ID":"2024-090N","EPOCH":"2026-03-09T08:25:17.568192","MEAN_MOTION":15.27579477,"ECCENTRICITY":0.00013718,"INCLINATION":42.9989,"RA_OF_ASC_NODE":185.785,"ARG_OF_PERICENTER":286.0581,"MEAN_ANOMALY":74.0119,"EPHEMERIS_TYPE":0,"CLASSIFICATION_TYPE":"U","NORAD_CAT_ID":59742,"ELEMENT_SET_NO":999,"REV_AT_EPOCH":10336,"BSTAR":-5.8813237e-5,"MEAN_MOTION_DOT":-1.88e-5,"MEAN_MOTION_DDOT":0},{"OBJECT_NAME":"KUIPER-00209","OBJECT_ID":"2026-030N","EPOCH":"2026-03-09T14:49:43.575744","MEAN_MOTION":15.3016195,"ECCENTRICITY":0.0012191,"INCLINATION":51.8838,"RA_OF_ASC_NODE":220.0775,"ARG_OF_PERICENTER":59.1967,"MEAN_ANOMALY":301.0215,"EPHEMERIS_TYPE":0,"CLASSIFICATION_TYPE":"U","NORAD_CAT_ID":67776,"ELEMENT_SET_NO":999,"REV_AT_EPOCH":507,"BSTAR":0.0011963,"MEAN_MOTION_DOT":0.00035298,"MEAN_MOTION_DDOT":0}]
